TROLL                   
1 62658U 25009BB  26068.22522958  .00013174  00000+0  48220-3 0  9994
2 62658  97.3932 150.7169 0001816  59.1850 300.9568 15.28164315118170
STARLINK-34091          
1 63808U 25092E   26068.29964367  .00030422  00000+0  11103-2 0  9999
2 63808  43.0023 174.8695 0000993 297.7347  62.3404 15.27586713 48601
